[{"OBJECT_NAME":"STARLINK-36471","OBJECT_ID":"2026-002V","EPOCH":"2026-03-09T02:51:22.155552","MEAN_MOTION":15.2758585,"ECCENTRICITY":0.00013932,"INCLINATION":43.0021,"RA_OF_ASC_NODE":328.3142,"ARG_OF_PERICENTER":277.6642,"MEAN_ANOMALY":82.4051,"EPHEMERIS_TYPE":0,"CLASSIFICATION_TYPE":"U","NORAD_CAT_ID":67324,"ELEMENT_SET_NO":999,"REV_AT_EPOCH":1099,"BSTAR":0.0010515395,"MEAN_MOTION_DOT":0.00028792,"MEAN_MOTION_DDOT":0},{"OBJECT_NAME":"OBJECT L","OBJECT_ID":"2024-024L","EPOCH":"2026-03-09T22:36:05.522976","MEAN_MOTION":15.29373491,"ECCENTRICITY":0.00073185,"INCLINATION":97.3169,"RA_OF_ASC_NODE":137.7038,"ARG_OF_PERICENTER":167.6369,"MEAN_ANOMALY":192.5052,"EPHEMERIS_TYPE":0,"CLASSIFICATION_TYPE":"U","NORAD_CAT_ID":58927,"ELEMENT_SET_NO":999,"REV_AT_EPOCH":9318,"BSTAR":0.00043092344,"MEAN_MOTION_DOT":0.00012217,"MEAN_MOTION_DDOT":0}]
